GALAXY 16 (G-16)        
1 29236U 06023A   26158.46859571 -.00000112  00000+0  00000+0 0  9993
2 29236   0.0174 153.4470 0002718 282.2973 249.8263  1.00271973 72879
EUTELSAT 33F            
1 29270U 06032A   26158.49477875  .00000170  00000+0  00000+0 0  9990
2 29270   1.6356  82.3533 0003488 350.1492  34.6300  1.00274412 47215
JCSAT-3A                
1 29272U 06033A   26158.44228411 -.00000330  00000+0  00000+0 0  9997
2 29272   0.0143 306.7361 0002137 137.9285  98.4053  1.00271047 47648
KOREASAT 5 (MUGUNGWHA 5)
1 29349U 06034A   26158.43925075 -.00000343  00000+0  00000+0 0  9996
2 29349   1.7592  83.1027 0001384  35.7062  48.2287  1.00272705 41227
DIRECTV 9S              
1 29494U 06043A   26158.46816235 -.00000099  00000+0  00000+0 0  9995
2 29494   2.3948  81.0199 0005093   6.0135 236.1938  1.00271665 51282
OPTUS D1                
1 29495U 06043B   26158.44684227 -.00000169  00000+0  00000+0 0  9996
2 29495   3.0089  79.7751 0003673 352.3529 136.5884  1.00271847 72021
BADR-4                  
1 29526U 06051A   26155.74309133  .00000167  00000+0  00000+0 0  9997
2 29526   1.9707  81.2738 0007892 161.5231 306.4291  1.00450212 51145
WILDBLUE-1              
1 29643U 06054A   26158.46616903 -.00000035  00000+0  00000+0 0  9993
2 29643   2.7771  80.6051 0001561 355.2592 236.6214  1.00272388 53692
SKYNET 5A               
1 30794U 07007B   26157.87302853 -.00000258  00000+0  00000+0 0  9998
2 30794   5.2756  73.8637 0003927   6.7184 224.2062  1.00272965 70592
ANIK F3                 
1 31102U 07009A   26158.46469567  .00000014  00000+0  00000+0 0  9995
2 31102   1.1714  83.9678 0002709 353.5945 226.8662  1.00271067 46462
ASTRA 1L                
1 31306U 07016A   26158.41206185 -.00000170  00000+0  00000+0 0  9993
2 31306   1.2956  81.6597 0005460   4.3030 293.7078  1.00272005 44886
GALAXY 17 (G-17)        
1 31307U 07016B   26158.47136904 -.00000192  00000+0  00000+0 0  9995
2 31307   2.9467  80.0233 0004897  14.5849 245.9707  1.00272069 69702
INTELSAT 11 (IS-11)     
1 32253U 07044B   26158.44617311 -.00000207  00000+0  00000+0 0  9997
2 32253   3.5393  78.7873 0001819  80.5514  65.7509  0.99053795 68353
WGS F1 (USA 195)        
1 32258U 07046A   26158.47977574 -.00000252  00000+0  00000+0 0  9997
2 32258   0.0459  95.7676 0000552 335.6579 314.7035  1.00274169 52235
SKYNET 5B               
1 32294U 07056B   26158.06781159  .00000153  00000+0  00000+0 0  9994
2 32294   5.2277  73.6245 0003947 355.9108 235.4348  1.00269867 68097
ASTRA 4A                
1 32299U 07057A   26158.34653851  .00000047  00000+0  00000+0 0  9990
2 32299   0.0225 307.5390 0002563 135.1881 302.6070  1.00274157 51546
HORIZONS-2              
1 32388U 07063B   26158.47353573 -.00000239  00000+0  00000+0 0  9992
2 32388   2.5762  80.7454 0004061 354.5262 277.3106  1.00272389 67713
THURAYA-3               
1 32404U 08001A   26158.14869360 -.00000126  00000+0  00000+0 0  9999
2 32404   5.9718  35.7809 0001133 150.0873 208.7629  1.00009265 67380
THOR 5                  
1 32487U 08006A   26158.34541183  .00000006  00000+0  00000+0 0  9993
2 32487   0.0420 257.3333 0002639 187.5385 294.4812  1.00272903 67215
AMC-14                  
1 32708U 08011A   26156.67620516 -.00000014  00000+0  00000+0 0  9997
2 32708  23.9919  20.6590 0045826   6.6193 172.4980  1.00353185 68053
DIRECTV 11              
1 32729U 08013A   26158.46850904 -.00000111  00000+0  00000+0 0  9995
2 32729   0.0322 184.5266 0000512 228.2859 272.5478  1.00273169 45494
ICO G1                  
1 32763U 08016A   26158.27475515 -.00000159  00000+0  00000+0 0  9998
2 32763   5.5321  36.1737 0002295  26.5795 198.9773  1.00272684 66442
VINASAT-1               
1 32767U 08018A   26158.44306411 -.00000314  00000+0  00000+0 0  9994
2 32767   0.0109 324.8605 0001275 115.1245 107.3209  1.00272287 66495
STAR ONE C2             
1 32768U 08018B   26158.47526906 -.00000262  00000+0  00000+0 0  9993
2 32768   1.2153  82.5536 0002746 357.5467 281.8824  1.00273255 66555
AMOS-3                  
1 32794U 08022A   26158.13794686  .00000169  00000+0  00000+0 0  9997
2 32794   0.4285  86.4007 0001923  60.9610 189.4352  1.00471134 82236
GALAXY 18 (G-18)        
1 32951U 08024A   26158.39256176  .00000039  00000+0  00000+0 0  9995
2 32951   0.0238  69.8654 0003199  16.5151 187.7363  1.00272865 45751
ZHONGXING-9             
1 33051U 08028A   26158.14999360 -.00000235  00000+0  00000+0 0  9992
2 33051   0.7422  85.4917 0004503 331.6994 344.7479  1.00273576 65932
SKYNET 5C               
1 33055U 08030A   26158.41336185 -.00000125  00000+0  00000+0 0  9997
2 33055   3.7631  77.1560 0004177   9.1444 300.5468  1.00270672 65850
TURKSAT 3A              
1 33056U 08030B   26158.42514859  .00000161  00000+0  00000+0 0  9994
2 33056   0.0724  83.5511 0005290 343.9126  23.4027  1.00272528 52269
INTELSAT 25 (IS-25)     
1 33153U 08034A   26158.30712066 -.00000222  00000+0  00000+0 0  9992
2 33153   2.6820  80.4475 0001902  30.5176  60.9856  0.99020748 65595
ECHOSTAR 11             
1 33207U 08035A   26158.46642903 -.00000043  00000+0  00000+0 0  9993
2 33207   0.9790  84.2935 0002469 338.9853 250.7117  1.00271769 51117
SUPERBIRD-C2            
1 33274U 08038A   26158.44384411 -.00000291  00000+0  00000+0 0  9990
2 33274   2.3350  81.3851 0006022  21.6803  88.5646  1.00272109105634
