OBJECT_NAME,OBJECT_ID,EPOCH,MEAN_MOTION,ECCENTRICITY,INCLINATION,RA_OF_ASC_NODE,ARG_OF_PERICENTER,MEAN_ANOMALY,EPHEMERIS_TYPE,CLASSIFICATION_TYPE,NORAD_CAT_ID,ELEMENT_SET_NO,REV_AT_EPOCH,BSTAR,MEAN_MOTION_DOT,MEAN_MOTION_DDOT
GALAXY 16 (G-16),2006-023A,2026-06-07T11:14:46.669344,1.00271973,.0002718,0.0174,153.4470,282.2973,249.8263,0,U,29236,999,7287,0,-.112E-5,0
EUTELSAT 33F,2006-032A,2026-06-07T11:52:28.884000,1.00274412,.0003488,1.6356,82.3533,350.1492,34.6300,0,U,29270,999,4721,0,.17E-5,0
JCSAT-3A,2006-033A,2026-06-07T10:36:53.347104,1.00271047,.0002137,0.0143,306.7361,137.9285,98.4053,0,U,29272,999,4764,0,-.33E-5,0
KOREASAT 5 (MUGUNGWHA 5),2006-034A,2026-06-07T10:32:31.264800,1.00272705,.0001384,1.7592,83.1027,35.7062,48.2287,0,U,29349,999,4122,0,-.343E-5,0
DIRECTV 9S,2006-043A,2026-06-07T11:14:09.227040,1.00271665,.0005093,2.3948,81.0199,6.0135,236.1938,0,U,29494,999,5128,0,-.99E-6,0
OPTUS D1,2006-043B,2026-06-07T10:43:27.172128,1.00271847,.0003673,3.0089,79.7751,352.3529,136.5884,0,U,29495,999,7202,0,-.169E-5,0
BADR-4,2006-051A,2026-06-04T17:50:03.090912,1.00450212,.00078927,1.9707,81.2738,161.5231,306.4291,0,U,29526,999,5114,0,.167E-5,0
WILDBLUE-1,2006-054A,2026-06-07T11:11:17.004192,1.00272388,.0001561,2.7771,80.6051,355.2592,236.6214,0,U,29643,999,5369,0,-.35E-6,0
SKYNET 5A,2007-007B,2026-06-06T20:57:09.664992,1.00272965,.0003927,5.2756,73.8637,6.7184,224.2062,0,U,30794,999,7059,0,-.258E-5,0
ANIK F3,2007-009A,2026-06-07T11:09:09.705888,1.00271067,.0002709,1.1714,83.9678,353.5945,226.8662,0,U,31102,999,4646,0,.14E-6,0
ASTRA 1L,2007-016A,2026-06-07T09:53:22.143840,1.00272005,.000546,1.2956,81.6597,4.3030,293.7078,0,U,31306,999,4488,0,-.17E-5,0
GALAXY 17 (G-17),2007-016B,2026-06-07T11:18:46.285056,1.00272069,.0004897,2.9467,80.0233,14.5849,245.9707,0,U,31307,999,6970,0,-.192E-5,0
INTELSAT 11 (IS-11),2007-044B,2026-06-07T10:42:29.356704,0.99053795,.0001819,3.5393,78.7873,80.5514,65.7509,0,U,32253,999,6835,0,-.207E-5,0
WGS F1 (USA 195),2007-046A,2026-06-07T11:30:52.623936,1.00274169,.0000552,0.0459,95.7676,335.6579,314.7035,0,U,32258,999,5223,0,-.252E-5,0
SKYNET 5B,2007-056B,2026-06-07T01:37:38.921376,1.00269867,.0003947,5.2277,73.6245,355.9108,235.4348,0,U,32294,999,6809,0,.153E-5,0
ASTRA 4A,2007-057A,2026-06-07T08:19:00.927264,1.00274157,.0002563,0.0225,307.5390,135.1881,302.6070,0,U,32299,999,5154,0,.47E-6,0
HORIZONS-2,2007-063B,2026-06-07T11:21:53.487072,1.00272389,.0004061,2.5762,80.7454,354.5262,277.3106,0,U,32388,999,6771,0,-.239E-5,0
THURAYA-3,2008-001A,2026-06-07T03:34:07.127040,1.00009265,.0001133,5.9718,35.7809,150.0873,208.7629,0,U,32404,999,6738,0,-.126E-5,0
THOR 5,2008-006A,2026-06-07T08:17:23.582112,1.00272903,.0002639,0.0420,257.3333,187.5385,294.4812,0,U,32487,999,6721,0,.6E-7,0
AMC-14,2008-011A,2026-06-05T16:13:44.125824,1.00353185,.00458262,23.9919,20.6590,6.6193,172.4980,0,U,32708,999,6805,0,-.14E-6,0
DIRECTV 11,2008-013A,2026-06-07T11:14:39.181056,1.00273169,.0000512,0.0322,184.5266,228.2859,272.5478,0,U,32729,999,4549,0,-.111E-5,0
ICO G1,2008-016A,2026-06-07T06:35:38.844960,1.00272684,.0002295,5.5321,36.1737,26.5795,198.9773,0,U,32763,999,6644,0,-.159E-5,0
VINASAT-1,2008-018A,2026-06-07T10:38:00.739104,1.00272287,.0001275,0.0109,324.8605,115.1245,107.3209,0,U,32767,999,6649,0,-.314E-5,0
STAR ONE C2,2008-018B,2026-06-07T11:24:23.246784,1.00273255,.0002746,1.2153,82.5536,357.5467,281.8824,0,U,32768,999,6655,0,-.262E-5,0
AMOS-3,2008-022A,2026-06-07T03:18:38.608704,1.00471134,.0001923,0.4285,86.4007,60.9610,189.4352,0,U,32794,999,8223,0,.169E-5,0
GALAXY 18 (G-18),2008-024A,2026-06-07T09:25:17.336064,1.00272865,.0003199,0.0238,69.8654,16.5151,187.7363,0,U,32951,999,4575,0,.39E-6,0
ZHONGXING-9,2008-028A,2026-06-07T03:35:59.447040,1.00273576,.0004503,0.7422,85.4917,331.6994,344.7479,0,U,33051,999,6593,0,-.235E-5,0
SKYNET 5C,2008-030A,2026-06-07T09:55:14.463840,1.00270672,.0004177,3.7631,77.1560,9.1444,300.5468,0,U,33055,999,6585,0,-.125E-5,0
TURKSAT 3A,2008-030B,2026-06-07T10:12:12.838176,1.00272528,.000529,0.0724,83.5511,343.9126,23.4027,0,U,33056,999,5226,0,.161E-5,0
INTELSAT 25 (IS-25),2008-034A,2026-06-07T07:22:15.225024,0.99020748,.0001902,2.6820,80.4475,30.5176,60.9856,0,U,33153,999,6559,0,-.222E-5,0
ECHOSTAR 11,2008-035A,2026-06-07T11:11:39.468192,1.00271769,.0002469,0.9790,84.2935,338.9853,250.7117,0,U,33207,999,5111,0,-.43E-6,0
SUPERBIRD-C2,2008-038A,2026-06-07T10:39:08.131104,1.00272109,.0006022,2.3350,81.3851,21.6803,88.5646,0,U,33274,999,10563,0,-.291E-5,0
